[{"OBJECT_NAME":"ONEWEB-0380","OBJECT_ID":"2021-090AD","EPOCH":"2026-03-14T22:40:34.883616","MEAN_MOTION":13.19724398,"ECCENTRICITY":0.00016132,"INCLINATION":87.9223,"RA_OF_ASC_NODE":323.7542,"ARG_OF_PERICENTER":72.2677,"MEAN_ANOMALY":287.8631,"EPHEMERIS_TYPE":0,"CLASSIFICATION_TYPE":"U","NORAD_CAT_ID":49306,"ELEMENT_SET_NO":999,"REV_AT_EPOCH":21399,"BSTAR":-5.3612626e-5,"MEAN_MOTION_DOT":-9.0e-8,"MEAN_MOTION_DDOT":0},{"OBJECT_NAME":"ONEWEB-0381","OBJECT_ID":"2021-090AE","EPOCH":"2026-03-14T16:33:01.119456","MEAN_MOTION":13.20770241,"ECCENTRICITY":0.0001393,"INCLINATION":87.9164,"RA_OF_ASC_NODE":293.3082,"ARG_OF_PERICENTER":81.2039,"MEAN_ANOMALY":278.9252,"EPHEMERIS_TYPE":0,"CLASSIFICATION_TYPE":"U","NORAD_CAT_ID":49307,"ELEMENT_SET_NO":999,"REV_AT_EPOCH":21735,"BSTAR":-7.3637413e-5,"MEAN_MOTION_DOT":-1.7e-7,"MEAN_MOTION_DDOT":0},{"OBJECT_NAME":"ONEWEB-0382","OBJECT_ID":"2021-090AF","EPOCH":"2026-03-14T21:42:05.948064","MEAN_MOTION":13.20770239,"ECCENTRICITY":0.00013294,"INCLINATION":87.9165,"RA_OF_ASC_NODE":293.2616,"ARG_OF_PERICENTER":86.2108,"MEAN_ANOMALY":273.9177,"EPHEMERIS_TYPE":0,"CLASSIFICATION_TYPE":"U","NORAD_CAT_ID":49308,"ELEMENT_SET_NO":999,"REV_AT_EPOCH":21737,"BSTAR":-0.00012945842,"MEAN_MOTION_DOT":-4.0e-7,"MEAN_MOTION_DDOT":0},{"OBJECT_NAME":"ONEWEB-0383","OBJECT_ID":"2021-090AG","EPOCH":"2026-03-14T20:58:17.056128","MEAN_MOTION":13.14502776,"ECCENTRICITY":0.00014488,"INCLINATION":87.8979,"RA_OF_ASC_NODE":308.5144,"ARG_OF_PERICENTER":85.1513,"MEAN_ANOMALY":274.9782,"EPHEMERIS_TYPE":0,"CLASSIFICATION_TYPE":"U","NORAD_CAT_ID":49309,"ELEMENT_SET_NO":999,"REV_AT_EPOCH":21520,"BSTAR":0.00074818501,"MEAN_MOTION_DOT":2.9e-6,"MEAN_MOTION_DDOT":0},{"OBJECT_NAME":"ONEWEB-0384","OBJECT_ID":"2021-090AH","EPOCH":"2026-03-14T21:29:25.581408","MEAN_MOTION":13.20807448,"ECCENTRICITY":0.00011376,"INCLINATION":87.9168,"RA_OF_ASC_NODE":293.3061,"ARG_OF_PERICENTER":92.1779,"MEAN_ANOMALY":267.9485,"EPHEMERIS_TYPE":0,"CLASSIFICATION_TYPE":"U","NORAD_CAT_ID":49310,"ELEMENT_SET_NO":999,"REV_AT_EPOCH":21738,"BSTAR":-0.00024890566,"MEAN_MOTION_DOT":-8.8e-7,"MEAN_MOTION_DDOT":0},{"OBJECT_NAME":"ONEWEB-0385","OBJECT_ID":"2021-090AJ","EPOCH":"2026-03-14T21:30:45.542016","MEAN_MOTION":13.20771096,"ECCENTRICITY":0.0001463,"INCLINATION":87.9164,"RA_OF_ASC_NODE":293.2678,"ARG_OF_PERICENTER":86.9391,"MEAN_ANOMALY":273.191,"EPHEMERIS_TYPE":0,"CLASSIFICATION_TYPE":"U","NORAD_CAT_ID":49311,"ELEMENT_SET_NO":999,"REV_AT_EPOCH":21735,"BSTAR":-0.00022661421,"MEAN_MOTION_DOT":-7.9e-7,"MEAN_MOTION_DDOT":0},{"OBJECT_NAME":"ONEWEB-0386","OBJECT_ID":"2021-090AK","EPOCH":"2026-03-14T20:06:39.545280","MEAN_MOTION":13.20770759,"ECCENTRICITY":0.00013843,"INCLINATION":87.9168,"RA_OF_ASC_NODE":293.2642,"ARG_OF_PERICENTER":88.646,"MEAN_ANOMALY":271.4832,"EPHEMERIS_TYPE":0,"CLASSIFICATION_TYPE":"U","NORAD_CAT_ID":49312,"ELEMENT_SET_NO":999,"REV_AT_EPOCH":21736,"BSTAR":-4.4256502e-5,"MEAN_MOTION_DOT":-5.0e-8,"MEAN_MOTION_DDOT":0},{"OBJECT_NAME":"ONEWEB-0387","OBJECT_ID":"2021-090AL","EPOCH":"2026-03-14T21:33:00.654336","MEAN_MOTION":13.2077042,"ECCENTRICITY":0.00015658,"INCLINATION":87.9153,"RA_OF_ASC_NODE":293.2889,"ARG_OF_PERICENTER":75.7619,"MEAN_ANOMALY":284.3688,"EPHEMERIS_TYPE":0,"CLASSIFICATION_TYPE":"U","NORAD_CAT_ID":49313,"ELEMENT_SET_NO":999,"REV_AT_EPOCH":21737,"BSTAR":-2.8199701e-5,"MEAN_MOTION_DOT":2.0e-8,"MEAN_MOTION_DDOT":0},{"OBJECT_NAME":"ONEWEB-0388","OBJECT_ID":"2021-090AM","EPOCH":"2026-03-14T22:33:45.233568","MEAN_MOTION":13.19724535,"ECCENTRICITY":0.00015514,"INCLINATION":87.9223,"RA_OF_ASC_NODE":323.7524,"ARG_OF_PERICENTER":80.2354,"MEAN_ANOMALY":279.8954,"EPHEMERIS_TYPE":0,"CLASSIFICATION_TYPE":"U","NORAD_CAT_ID":49314,"ELEMENT_SET_NO":999,"REV_AT_EPOCH":21398,"BSTAR":-0.00010617532,"MEAN_MOTION_DOT":-3.0e-7,"MEAN_MOTION_DDOT":0},{"OBJECT_NAME":"ONEWEB-0389","OBJECT_ID":"2021-132A","EPOCH":"2026-03-14T21:15:50.666976","MEAN_MOTION":13.17650154,"ECCENTRICITY":0.00016171,"INCLINATION":87.9156,"RA_OF_ASC_NODE":24.5943,"ARG_OF_PERICENTER":69.6897,"MEAN_ANOMALY":290.4408,"EPHEMERIS_TYPE":0,"CLASSIFICATION_TYPE":"U","NORAD_CAT_ID":50469,"ELEMENT_SET_NO":999,"REV_AT_EPOCH":20566,"BSTAR":3.8024658e-5,"MEAN_MOTION_DOT":2.8e-7,"MEAN_MOTION_DDOT":0},{"OBJECT_NAME":"ONEWEB-0390","OBJECT_ID":"2021-132B","EPOCH":"2026-03-14T21:18:15.590880","MEAN_MOTION":13.17647876,"ECCENTRICITY":0.00021051,"INCLINATION":87.9156,"RA_OF_ASC_NODE":24.5937,"ARG_OF_PERICENTER":75.896,"MEAN_ANOMALY":284.2406,"EPHEMERIS_TYPE":0,"CLASSIFICATION_TYPE":"U","NORAD_CAT_ID":50470,"ELEMENT_SET_NO":999,"REV_AT_EPOCH":20566,"BSTAR":5.641914e-5,"MEAN_MOTION_DOT":3.5e-7,"MEAN_MOTION_DDOT":0},{"OBJECT_NAME":"ONEWEB-0391","OBJECT_ID":"2021-132C","EPOCH":"2026-03-14T21:20:42.331776","MEAN_MOTION":13.17650092,"ECCENTRICITY":0.00018263,"INCLINATION":87.9158,"RA_OF_ASC_NODE":24.6027,"ARG_OF_PERICENTER":53.9188,"MEAN_ANOMALY":306.2113,"EPHEMERIS_TYPE":0,"CLASSIFICATION_TYPE":"U","NORAD_CAT_ID":50471,"ELEMENT_SET_NO":999,"REV_AT_EPOCH":20566,"BSTAR":-3.8590802e-5,"MEAN_MOTION_DOT":-2.0e-8,"MEAN_MOTION_DDOT":0},{"OBJECT_NAME":"ONEWEB-0392","OBJECT_ID":"2021-132D","EPOCH":"2026-03-14T22:04:26.710176","MEAN_MOTION":13.1764969,"ECCENTRICITY":0.00016773,"INCLINATION":87.9169,"RA_OF_ASC_NODE":24.5581,"ARG_OF_PERICENTER":68.2758,"MEAN_ANOMALY":291.8552,"EPHEMERIS_TYPE":0,"CLASSIFICATION_TYPE":"U","NORAD_CAT_ID":50472,"ELEMENT_SET_NO":999,"REV_AT_EPOCH":20570,"BSTAR":0.00013406692,"MEAN_MOTION_DOT":6.5e-7,"MEAN_MOTION_DDOT":0},{"OBJECT_NAME":"ONEWEB-0393","OBJECT_ID":"2021-132E","EPOCH":"2026-03-14T21:25:45.225984","MEAN_MOTION":13.17648073,"ECCENTRICITY":0.00017782,"INCLINATION":87.9167,"RA_OF_ASC_NODE":24.5862,"ARG_OF_PERICENTER":74.4649,"MEAN_ANOMALY":285.6679,"EPHEMERIS_TYPE":0,"CLASSIFICATION_TYPE":"U","NORAD_CAT_ID":50473,"ELEMENT_SET_NO":999,"REV_AT_EPOCH":20569,"BSTAR":-0.0001232671,"MEAN_MOTION_DOT":-3.5e-7,"MEAN_MOTION_DDOT":0},{"OBJECT_NAME":"ONEWEB-0394","OBJECT_ID":"2021-132F","EPOCH":"2026-03-14T16:58:47.123904","MEAN_MOTION":13.18686991,"ECCENTRICITY":0.0001667,"INCLINATION":87.9247,"RA_OF_ASC_NODE":354.2076,"ARG_OF_PERICENTER":75.5283,"MEAN_ANOMALY":284.6034,"EPHEMERIS_TYPE":0,"CLASSIFICATION_TYPE":"U","NORAD_CAT_ID":50474,"ELEMENT_SET_NO":999,"REV_AT_EPOCH":20914,"BSTAR":0.00033464801,"MEAN_MOTION_DOT":1.45e-6,"MEAN_MOTION_DDOT":0},{"OBJECT_NAME":"ONEWEB-0395","OBJECT_ID":"2021-132G","EPOCH":"2026-03-14T22:34:22.688832","MEAN_MOTION":13.11417287,"ECCENTRICITY":0.00018616,"INCLINATION":87.8867,"RA_OF_ASC_NODE":39.8084,"ARG_OF_PERICENTER":75.3959,"MEAN_ANOMALY":284.7376,"EPHEMERIS_TYPE":0,"CLASSIFICATION_TYPE":"U","NORAD_CAT_ID":50475,"ELEMENT_SET_NO":999,"REV_AT_EPOCH":20336,"BSTAR":-0.0011301546,"MEAN_MOTION_DOT":-3.88e-6,"MEAN_MOTION_DDOT":0}]
