ONEWEB-0380             
1 49306U 21090AD  26073.94484819 -.00000009  00000+0 -53613-4 0  9991
2 49306  87.9223 323.7542 0001613  72.2677 287.8631 13.19724398213999
ONEWEB-0381             
1 49307U 21090AE  26073.68959629 -.00000017  00000+0 -73637-4 0  9996
2 49307  87.9164 293.3082 0001393  81.2039 278.9252 13.20770241217356
ONEWEB-0382             
1 49308U 21090AF  26073.90423551 -.00000040  00000+0 -12946-3 0  9993
2 49308  87.9165 293.2616 0001329  86.2108 273.9177 13.20770239217371
ONEWEB-0383             
1 49309U 21090AG  26073.87380852  .00000290  00000+0  74819-3 0  9998
2 49309  87.8979 308.5144 0001448  85.1513 274.9782 13.14502776215205
ONEWEB-0384             
1 49310U 21090AH  26073.89543497 -.00000088  00000+0 -24891-3 0  9990
2 49310  87.9168 293.3061 0001137  92.1779 267.9485 13.20807448217388
ONEWEB-0385             
1 49311U 21090AJ  26073.89636044 -.00000079  00000+0 -22661-3 0  9995
2 49311  87.9164 293.2678 0001463  86.9391 273.1910 13.20771096217359
ONEWEB-0386             
1 49312U 21090AK  26073.83795770 -.00000005  00000+0 -44257-4 0  9997
2 49312  87.9168 293.2642 0001384  88.6460 271.4832 13.20770759217363
ONEWEB-0387             
1 49313U 21090AL  26073.89792424  .00000002  00000+0 -28200-4 0  9993
2 49313  87.9153 293.2889 0001565  75.7619 284.3688 13.20770420217373
ONEWEB-0388             
1 49314U 21090AM  26073.94010687 -.00000030  00000+0 -10618-3 0  9999
2 49314  87.9223 323.7524 0001551  80.2354 279.8954 13.19724535213981
ONEWEB-0389             
1 50469U 21132A   26073.88600309  .00000028  00000+0  38025-4 0  9996
2 50469  87.9156  24.5943 0001617  69.6897 290.4408 13.17650154205668
ONEWEB-0390             
1 50470U 21132B   26073.88768045  .00000035  00000+0  56419-4 0  9995
2 50470  87.9156  24.5937 0002105  75.8960 284.2406 13.17647876205662
ONEWEB-0391             
1 50471U 21132C   26073.88937884 -.00000002  00000+0 -38591-4 0  9992
2 50471  87.9158  24.6027 0001826  53.9188 306.2113 13.17650092205668
ONEWEB-0392             
1 50472U 21132D   26073.91975359  .00000065  00000+0  13407-3 0  9991
2 50472  87.9169  24.5581 0001677  68.2758 291.8552 13.17649690205704
ONEWEB-0393             
1 50473U 21132E   26073.89288456 -.00000035  00000+0 -12327-3 0  9993
2 50473  87.9167  24.5862 0001778  74.4649 285.6679 13.17648073205698
ONEWEB-0394             
1 50474U 21132F   26073.70748986  .00000145  00000+0  33465-3 0  9999
2 50474  87.9247 354.2076 0001667  75.5283 284.6034 13.18686991209141
ONEWEB-0395             
1 50475U 21132G   26073.94054038 -.00000388  00000+0 -11302-2 0  9990
2 50475  87.8867  39.8084 0001861  75.3959 284.7376 13.11417287203369
